SL-14 R/B               
1 20262U 89080C   25248.15923885  .00000394  00000+0  11936-3 0  9997
2 20262  82.5922 292.3269 1229599 248.8310  97.7260 12.50337589636962
DELTA 1 R/B             
1 20323U 89089B   25248.13200145  .00000593  00000+0  15610-3 0  9993
2 20323  97.0911 119.9308 0069055 350.1468   9.8371 14.50454130868830
ARIANE 40 R/B           
1 20443U 90005H   25248.19217183  .00000520  00000+0  17954-3 0  9995
2 20443  98.3389 309.0829 0010921  48.1739 312.0381 14.39689655866117
DELTA 2 R/B(1)          
1 20453U 90008B   25248.20545916  .00034130  00000+0  68946-3 0  9990
2 20453  35.6085 292.7453 0126678   2.6915 357.4474 15.37209434897420
COSMOS 2058             
1 20465U 90010A   25248.21342446  .00005351  00000+0  33315-3 0  9995
2 20465  82.4731 229.8315 0008055 241.1620 118.8801 15.09383387914242
SL-14 R/B               
1 20466U 90010B   25248.26211895  .00000732  00000+0  86228-4 0  9994
2 20466  82.4989  81.5130 0019653 186.8555 173.2394 14.83324860900995
SL-14 R/B               
1 20511U 90018B   25248.16933023  .00000784  00000+0  96012-4 0  9995
2 20511  82.5214  36.4716 0016075 347.4885  12.5927 14.81908583895104
HST                     
1 20580U 90037B   25248.24080441  .00008540  00000+0  31261-3 0  9990
2 20580  28.4673 221.9649 0002103 233.9038 126.1362 15.26191651744928
SL-16 R/B               
1 20625U 90046B   25248.27038725  .00000148  00000+0  10118-3 0  9995
2 20625  71.0009 327.3167 0015907 231.7130 128.2563 14.14973439822163
COSMOS 2084             
1 20663U 90055A   25248.26922826  .00003548  00000+0  26291-3 0  9996
2 20663  62.7887 247.2800 0048214 163.0687 197.2036 15.04118040908414
SL-6 R/B(2)             
1 20666U 90055D   25248.21512464  .00003220  00000+0  25634-3 0  9994
2 20666  62.7844 163.9964 0014757 221.2433 138.7552 15.02364728910315
SL-8 R/B                
1 20775U 90078B   25248.16836144  .00011986  00000+0  39356-3 0  9992
2 20775  82.9050  57.1303 0392063 274.5325  81.1213 14.80577619781760
SL-8 R/B                
1 21088U 91006B   25248.25512586  .00000061  00000+0  45451-4 0  9999
2 21088  82.9430 307.9974 0022280 191.1203 233.4017 13.77470294738548
OKEAN-3                 
1 21397U 91039A   25248.25884443  .00003766  00000+0  27600-3 0  9992
2 21397  82.5201 156.2942 0012909 237.9664 122.0309 15.03217624837162
COSMOS 2151             
1 21422U 91042A   25248.25578349  .00003200  00000+0  26105-3 0  9992
2 21422  82.4934 262.3671 0011561 333.3434  26.7193 14.99110244835400
SL-14 R/B               
1 21423U 91042B   25248.11650057  .00000819  00000+0  10094-3 0  9998
2 21423  82.4934  34.1834 0018247 128.0473 232.2391 14.81607449825599
ERS-1                   
1 21574U 91050A   25248.29990461  .00000585  00000+0  20242-3 0  9995
2 21574  98.7946 256.8581 0032726  33.9990 326.3285 14.39251898789061
ARIANE 40 R/B           
1 21610U 91050F   25248.16723142  .00000592  00000+0  19066-3 0  9992
2 21610  98.2323 302.0762 0001880 278.2889  81.8089 14.42693497792247
INTERCOSMOS 25          
1 21819U 91086A   25247.95458784  .00004430  00000+0  87045-3 0  9992
2 21819  82.5989  62.2437 1489670 157.1506 210.3597 12.11267238474193
SL-8 R/B                
1 21876U 92008B   25248.16921851  .00000041  00000+0  27273-4 0  9996
2 21876  82.9258  45.7408 0033475 293.7533 241.9071 13.75938657683906
SL-8 R/B                
1 21938U 92020B   25248.20506834  .00000049  00000+0  34550-4 0  9998
2 21938  82.9285 291.5151 0030479  95.5835 328.1800 13.75519676675630
USA 81                  
1 21949U 92023A   25248.25043728  .00000325  00000+0  11303-3 0  9993
2 21949  85.0042 238.3708 0001210  90.7849 269.3482 14.32269584 68246
COSMOS 2219             
1 22219U 92076A   25248.18410691  .00000361  00000+0  21403-3 0  9993
2 22219  71.0613  45.8453 0016429 127.1512 233.1114 14.14044714692154
SL-16 R/B               
1 22220U 92076B   25248.30709604 -.00000079  00000+0 -15728-4 0  9996
2 22220  70.9989 218.8663 0012395   6.8265  95.2247 14.16818796695575
COSMOS 2221             
1 22236U 92080A   25248.05718338  .00003212  00000+0  28975-3 0  9991
2 22236  82.5018  96.7275 0016098  95.5088 264.7970 14.95154386753046
SL-16 R/B               
1 22285U 92093B   25247.80382947  .00000371  00000+0  21466-3 0  9995
2 22285  71.0228  34.4772 0006067 244.1013 115.9485 14.15407970686856
COSMOS 2228             
1 22286U 92094A   25248.25857347  .00003806  00000+0  33587-3 0  9991
2 22286  82.5158  54.6966 0017799 202.4252 157.6194 14.96029739748324
SL-16 R/B               
1 22566U 93016B   25248.24978783  .00000223  00000+0  13888-3 0  9996
2 22566  71.0051 244.6496 0012363 249.8218 110.1575 14.15264658675933
COSMOS 2242             
1 22626U 93024A   25248.09765345  .00003233  00000+0  28940-3 0  9992
2 22626  82.5158  84.0687 0015898 205.1788 154.8660 14.95461683752645
SL-16 R/B               
1 22803U 93059B   25248.12809687  .00000056  00000+0  51570-4 0  9995
2 22803  70.9907  42.4265 0015516 138.6133 221.6169 14.17187685653240
ARIANE 40 R/B           
1 22830U 93061H   25248.21956595  .00000420  00000+0  17022-3 0  9997
2 22830  98.5202 315.4823 0011841 111.7872 248.4573 14.32704683667540
COSMOS 2278             
1 23087U 94023A   25248.22686154 -.00000132  00000+0 -44334-4 0  9992
2 23087  71.0525 203.1030 0010841 303.4676  56.5410 14.14314478618580
SL-16 R/B               
1 23088U 94023B   25248.00527770 -.00000008  00000+0  20518-4 0  9996
2 23088  70.9979 100.8327 0005016 239.3925 120.6704 14.14975398619827
SL-16 R/B               
1 23343U 94074B   25248.11639113  .00000850  00000+0  12133-3 0  9990
2 23343  97.7341 281.2627 0008061 103.2495 321.4248 14.79124681659811
SL-16 R/B               
1 23405U 94077B   25248.13000273  .00000330  00000+0  19305-3 0  9994
2 23405  70.9847  22.8597 0000479  67.3080 292.8094 14.15528501589972
ARIANE 40+ R/B          
1 23561U 95021B   25248.24729758  .00000504  00000+0  17538-3 0  9994
2 23561  98.4772 316.9695 0006309 347.2862  48.6780 14.39585264592562
SL-16 R/B               
1 23705U 95058B   25248.26911872  .00000046  00000+0  47843-4 0  9990
2 23705  71.0210 209.5315 0011205  32.7908 327.3908 14.15463299541616
SL-16 R/B               
1 24298U 96051B   25248.25818034 -.00000104  00000+0 -29578-4 0  9999
2 24298  70.7617 207.7145 0013493  41.3112 318.9026 14.12395997495460
ORBVIEW 2 (SEASTAR)     
1 24883U 97037A   25248.27759624  .00000524  00000+0  19900-3 0  9996
2 24883  98.8372  42.9273 0001358 227.7482 132.3588 14.35305368481876
SL-16 R/B               
1 25400U 98043G   25248.28597961  .00000131  00000+0  73572-4 0  9995
2 25400  98.7933 195.6484 0009603 186.2351 173.8711 14.25989120412560
SL-16 R/B               
1 25407U 98045B   25248.22965578  .00000285  00000+0  16797-3 0  9996
2 25407  71.0101 211.5797 0009366 299.6319  60.3870 14.16151155400845
ISS (ZARYA)             
1 25544U 98067A   25248.13333647  .00010878  00000+0  19750-3 0  9999
2 25544  51.6332 270.8228 0004213 301.3502  58.7074 15.50112942527561
CZ-4B R/B               
1 25732U 99025C   25248.11928725  .00000134  00000+0  85324-4 0  9993
2 25732  98.6929 291.5174 0037591 157.0143 261.5900 14.18209000361861
OKEAN-O                 
1 25860U 99039A   25248.15098704  .00001270  00000+0  17519-3 0  9991
2 25860  97.9759 304.6328 0001124 115.6902 244.4426 14.79920325406948
SL-16 R/B               
1 25861U 99039B   25248.10708030  .00001050  00000+0  14102-3 0  9998
2 25861  98.0284 302.1738 0015838 135.8966 224.3512 14.81380285409385
DELTA 2 R/B             
1 25876U 99041E   25248.20399499  .00002537  00000+0  44661-3 0  9997
2 25876  51.7629 321.6407 0506038 161.2298 200.8062 14.11083155336834
HELIOS 1B               
1 25977U 99064A   25248.28927617  .00002288  00000+0  26378-3 0  9999
2 25977  98.1825 140.0583 0000960  39.8968 320.2317 14.86717264657703
TERRA                   
1 25994U 99068A   25248.24274330  .00000823  00000+0  17784-3 0  9999
2 25994  97.9909 303.4579 0003391  66.4301   6.5381 14.60787646368000
SL-16 R/B               
1 26070U 00006B   25248.12644717  .00000295  00000+0  17409-3 0  9993
2 26070  71.0023 128.0023 0014441 106.0064 254.2651 14.15787944322290
TITAN 4B R/B            
1 26474U 00047B   25248.26187073  .00005147  00000+0  33639-3 0  9992
2 26474  67.9893 201.1900 0047804 251.4267 108.1686 15.07689064364942
ENVISAT                 
1 27386U 02009A   25248.31784566  .00000235  00000+0  90057-4 0  9992
2 27386  98.3409 201.6488 0001163  88.2453  35.4733 14.38944799232517
IDEFIX & ARIANE 42P R/B 
1 27422U 02021B   25248.26686404  .00000523  00000+0  21586-3 0  9993
2 27422  98.5628 184.3246 0012346  18.8681 341.2957 14.30842416217502
AQUA                    
1 27424U 02022A   25248.32874778  .00001704  00000+0  35379-3 0  9993
2 27424  98.3851 207.7241 0001797 102.7091  23.6987 14.61457772241659
CZ-4B R/B               
1 27432U 02024C   25248.11029149  .00000105  00000+0  77338-4 0  9991
2 27432  98.9163 297.1405 0050059 188.7528 225.9547 14.14499916203009
MIDORI II (ADEOS-II)    
1 27597U 02056A   25248.27962740  .00000501  00000+0  21521-3 0  9990
2 27597  98.7446 200.8164 0001419 126.9668 233.1644 14.29102560183818
H-2A R/B                
1 27601U 02056E   25248.19179115  .00000696  00000+0  25925-3 0  9990
2 27601  98.2879 210.9634 0070437 355.5514  14.1684 14.33566916187537
CZ-4B R/B               
1 28059U 03049C   25248.24536236  .00000794  00000+0  19395-3 0  9991
2 28059  98.6679 231.1359 0049593  77.9607 282.7141 14.54753606159631
CZ-2C R/B               
1 28222U 04012C   25248.11340729  .00031987  00000+0  61375-3 0  9993
2 28222  97.7593 293.1464 0019884 266.4986  93.3989 15.47713746175434
SL-16 R/B               
1 28353U 04021B   25248.25852948 -.00000132  00000+0 -43795-4 0  9991
2 28353  70.9990 261.6261 0007150 305.1689  54.8763 14.14562708 96619
